[{"OBJECT_NAME":"STARLINK-36609","OBJECT_ID":"2026-016X","EPOCH":"2026-03-09T16:57:28.485216","MEAN_MOTION":15.75184312,"ECCENTRICITY":8.036e-5,"INCLINATION":97.2846,"RA_OF_ASC_NODE":129.1579,"ARG_OF_PERICENTER":82.37,"MEAN_ANOMALY":277.7657,"EPHEMERIS_TYPE":0,"CLASSIFICATION_TYPE":"U","NORAD_CAT_ID":67582,"ELEMENT_SET_NO":999,"REV_AT_EPOCH":680,"BSTAR":0.0020952114,"MEAN_MOTION_DOT":0.0032449,"MEAN_MOTION_DDOT":0},{"OBJECT_NAME":"FENGYUN 1C DEB","OBJECT_ID":"1999-025AMT","EPOCH":"2026-03-09T00:15:23.574528","MEAN_MOTION":15.70909629,"ECCENTRICITY":0.00138927,"INCLINATION":99.0703,"RA_OF_ASC_NODE":83.4899,"ARG_OF_PERICENTER":75.2074,"MEAN_ANOMALY":313.8054,"EPHEMERIS_TYPE":0,"CLASSIFICATION_TYPE":"U","NORAD_CAT_ID":30612,"ELEMENT_SET_NO":999,"REV_AT_EPOCH":1589,"BSTAR":0.0070902188,"MEAN_MOTION_DOT":0.00977467,"MEAN_MOTION_DDOT":0}]
